0 IRIDIUM 171
1 43929U 19002H   24015.96165376 -.00000057  00000-0 -27385-4 0  9997
2 43929  86.3979   2.8986 0001998  92.5605 267.5820 14.34216888262362
0 IRIDIUM 170
1 43930U 19002J   24015.99278137  .00002152  00000-0  33712-3 0  9998
2 43930  86.6112   2.7283 0002407  89.0351 271.1142 14.72271421269316
0 IRIDIUM 167
1 43931U 19002K   24016.02507588  .00000434  00000-0  14777-3 0  9990
2 43931  86.3976   2.6780 0002044  90.1387 270.0043 14.34220582262379
0 IRIDIUM 181
1 56726U 23068S   24015.64024206  .00000660  00000-0  18908-3 0  9992
2 56726  86.8606  49.1106 0001532  93.7286 266.4091 14.43583741 34981
0 IRIDIUM 177
1 56727U 23068T   24015.83714319  .00001022  00000-0  13096-3 0  9991
2 56727  86.1963  28.1514 0002372  94.6222 265.5270 14.80243867 35695
0 IRIDIUM 174
1 56728U 23068U   24015.76409376  .00001045  00000-0  13399-3 0  9999
2 56728  86.1970  28.2773 0002474  92.4147 267.7357 14.80224860 35688
0 IRIDIUM 178
1 56729U 23068V   24015.89389786  .00002548  00000-0  33165-3 0  9998
2 56729  86.5764  38.4109 0002384  95.5109 264.6385 14.80255664 35708
0 IRIDIUM 179
1 56730U 23068W   24016.02371137  .00002479  00000-0  32260-3 0  9995
2 56730  86.6773  40.5600 0002471  96.5243 263.6260 14.80256216 35725
